RADARSAT-2              
1 32382U 07061A   26189.51887082  .00000022  00000+0  25513-4 0  9990
2 32382  98.5785 196.1466 0001325  82.8639 277.2694 14.29982206969006
