{"fetched_at":"2026-07-08T18:00:06.150Z","source":"https://celestrak.org/NORAD/elements/gp.php?NAME=RADARSAT&FORMAT=JSON","constellation":"radarsat-2","records":[{"OBJECT_NAME":"RADARSAT-2","OBJECT_ID":"2007-061A","EPOCH":"2026-07-08T12:27:10.438848","CLASSIFICATION_TYPE":"U","MEAN_MOTION":14.29982206,"ECCENTRICITY":0.0001325,"INCLINATION":98.5785,"RA_OF_ASC_NODE":196.1466,"ARG_OF_PERICENTER":82.8639,"MEAN_ANOMALY":277.2694,"EPHEMERIS_TYPE":0,"NORAD_CAT_ID":32382,"ELEMENT_SET_NO":999,"REV_AT_EPOCH":96900,"BSTAR":0.000025513,"MEAN_MOTION_DOT":2.2e-7,"MEAN_MOTION_DDOT":0}]}
